start=new Date('2022-05-07T00:00:00.000Z').valueOf();
sats=[{"MEAN_ANOMALY":"305.3615","OBJECT_TYPE":"PAYLOAD","GP_ID":"202860891","ECCENTRICITY":"0.00018030","SEMIMAJOR_AXIS":"6925.331","CENTER_NAME":"EARTH","MEAN_MOTION":"15.06405611","REF_FRAME":"TEME","SITE":"AFETR","ELEMENT_SET_NO":"999","EPOCH":"2022-05-06T13:11:48.169248","TLE_LINE2":"2 46718  53.0545  75.5490 0001803  54.7543 305.3615 15.06405611 85432","FILE":"3432208","MEAN_MOTION_DDOT":"0.0000000000000","NORAD_CAT_ID":"46718","MEAN_MOTION_DOT":"0.00001376","OBJECT_ID":"2020-073BA","TLE_LINE1":"1 46718U 20073BA  22126.54986307  .00001376  00000-0  11127-3 0  9995","MEAN_ELEMENT_THEORY":"SGP4","APOAPSIS":"548.445","TIME_SYSTEM":"UTC","PERIAPSIS":"545.948","ARG_OF_PERICENTER":"54.7543","COUNTRY_CODE":"US","DECAY_DATE":null,"REV_AT_EPOCH":"8543","INCLINATION":"53.0545","EPHEMERIS_TYPE":"0","PERIOD":"95.592","OBJECT_NAME":"STARLINK-1821","CLASSIFICATION_TYPE":"U","RCS_SIZE":"LARGE","RA_OF_ASC_NODE":"75.5490","LAUNCH_DATE":"2020-10-18","BSTAR":"0.00011127000000"},{"ARG_OF_PERICENTER":"50.1624","PERIAPSIS":"545.948","MEAN_ELEMENT_THEORY":"SGP4","TIME_SYSTEM":"UTC","APOAPSIS":"548.480","MEAN_MOTION_DDOT":"0.0000000000000","MEAN_MOTION_DOT":"0.00000171","OBJECT_ID":"2020-073BB","NORAD_CAT_ID":"46719","TLE_LINE1":"1 46719U 20073BB  22126.46647385  .00000171  00000-0  30362-4 0  9992","REV_AT_EPOCH":"8591","COUNTRY_CODE":"US","DECAY_DATE":null,"EPHEMERIS_TYPE":"0","PERIOD":"95.592","INCLINATION":"53.0560","BSTAR":"0.00003036200000","RA_OF_ASC_NODE":"40.9346","LAUNCH_DATE":"2020-10-18","CLASSIFICATION_TYPE":"U","RCS_SIZE":"LARGE","OBJECT_NAME":"STARLINK-1822","OBJECT_TYPE":"PAYLOAD","MEAN_ANOMALY":"309.9526","CENTER_NAME":"EARTH","MEAN_MOTION":"15.06399906","SEMIMAJOR_AXIS":"6925.349","GP_ID":"202861640","ECCENTRICITY":"0.00018280","SITE":"AFETR","ELEMENT_SET_NO":"999","EPOCH":"2022-05-06T11:11:43.340640","TLE_LINE2":"2 46719  53.0560  40.9346 0001828  50.1624 309.9526 15.06399906 85916","REF_FRAME":"TEME","FILE":"3432208"},{"FILE":"3432627","EPOCH":"2022-05-06T19:59:47.726592","TLE_LINE2":"2 46720  53.0520 325.7171 0001830 166.1840 193.9226 15.66451508 87480","SITE":"AFETR","ELEMENT_SET_NO":"999","REF_FRAME":"TEME","SEMIMAJOR_AXIS":"6747.204","ECCENTRICITY":"0.00018300","GP_ID":"202874204","MEAN_MOTION":"15.66451508","CENTER_NAME":"EARTH","MEAN_ANOMALY":"193.9226","OBJECT_TYPE":"PAYLOAD","CLASSIFICATION_TYPE":"U","RCS_SIZE":"LARGE","OBJECT_NAME":"STARLINK-1823","BSTAR":"0.00115740000000","LAUNCH_DATE":"2020-10-18","RA_OF_ASC_NODE":"325.7171","PERIOD":"91.928","EPHEMERIS_TYPE":"0","INCLINATION":"53.0520","DECAY_DATE":null,"COUNTRY_CODE":"US","REV_AT_EPOCH":"8748","APOAPSIS":"370.304","TIME_SYSTEM":"UTC","MEAN_ELEMENT_THEORY":"SGP4","TLE_LINE1":"1 46720U 20073BC  22126.83319128  .00124042  00000-0  11574-2 0  9992","MEAN_MOTION_DDOT":"0.0000000000000","MEAN_MOTION_DOT":"0.00124042","NORAD_CAT_ID":"46720","OBJECT_ID":"2020-073BC","ARG_OF_PERICENTER":"166.1840","PERIAPSIS":"367.835"},{"DECAY_DATE":null,"COUNTRY_CODE":"US","REV_AT_EPOCH":"8540","APOAPSIS":"548.499","TIME_SYSTEM":"UTC","MEAN_ELEMENT_THEORY":"SGP4","TLE_LINE1":"1 46722U 20073BE  22126.37662925  .00002927  00000-0  21537-3 0  9997","NORAD_CAT_ID":"46722","MEAN_MOTION_DDOT":"0.0000000000000","MEAN_MOTION_DOT":"0.00002927","OBJECT_ID":"2020-073BE","ARG_OF_PERICENTER":"52.1399","PERIAPSIS":"545.974","CLASSIFICATION_TYPE":"U","RCS_SIZE":"LARGE","OBJECT_NAME":"STARLINK-1825","BSTAR":"0.00021537000000","LAUNCH_DATE":"2020-10-18","RA_OF_ASC_NODE":"76.3374","PERIOD":"95.593","EPHEMERIS_TYPE":"0","INCLINATION":"53.0559","SEMIMAJOR_AXIS":"6925.371","ECCENTRICITY":"0.00018230","GP_ID":"202860639","MEAN_MOTION":"15.06392595","CENTER_NAME":"EARTH","MEAN_ANOMALY":"307.9755","OBJECT_TYPE":"PAYLOAD","FILE":"3432208","EPOCH":"2022-05-06T09:02:20.767200","TLE_LINE2":"2 46722  53.0559  76.3374 0001823  52.1399 307.9755 15.06392595 85401","SITE":"AFETR","ELEMENT_SET_NO":"999","REF_FRAME":"TEME"},{"FILE":"3432208","REF_FRAME":"TEME","SITE":"AFETR","ELEMENT_SET_NO":"999","EPOCH":"2022-05-06T11:15:02.905632","TLE_LINE2":"2 46723  53.0562  35.9306 0001718  63.0988 297.0176 15.06401090 85980","GP_ID":"202860392","ECCENTRICITY":"0.00017180","SEMIMAJOR_AXIS":"6925.345","CENTER_NAME":"EARTH","MEAN_MOTION":"15.06401090","MEAN_ANOMALY":"297.0176","OBJECT_TYPE":"PAYLOAD","OBJECT_NAME":"STARLINK-1826","RCS_SIZE":"LARGE","CLASSIFICATION_TYPE":"U","RA_OF_ASC_NODE":"35.9306","LAUNCH_DATE":"2020-10-18","BSTAR":"-0.00004065500000","INCLINATION":"53.0562","EPHEMERIS_TYPE":"0","PERIOD":"95.592","COUNTRY_CODE":"US","DECAY_DATE":null,"REV_AT_EPOCH":"8598","NORAD_CAT_ID":"46723","MEAN_MOTION_DDOT":"0.0000000000000","MEAN_MOTION_DOT":"-0.00000887","OBJECT_ID":"2020-073BF","TLE_LINE1":"1 46723U 20073BF  22126.46878363 -.00000887  00000-0 -40655-4 0  9991","MEAN_ELEMENT_THEORY":"SGP4","APOAPSIS":"548.400","TIME_SYSTEM":"UTC","PERIAPSIS":"546.020","ARG_OF_PERICENTER":"63.0988"},{"TLE_LINE1":"1 46725U 20073BH  22126.87054212 -.00000031  00000-0  16816-4 0  9999","MEAN_MOTION_DDOT":"0.0000000000000","MEAN_MOTION_DOT":"-0.00000031","NORAD_CAT_ID":"46725","OBJECT_ID":"2020-073BH","APOAPSIS":"548.684","TIME_SYSTEM":"UTC","MEAN_ELEMENT_THEORY":"SGP4","PERIAPSIS":"545.720","ARG_OF_PERICENTER":"57.6026","DECAY_DATE":null,"COUNTRY_CODE":"US","REV_AT_EPOCH":"8596","INCLINATION":"53.0556","PERIOD":"95.592","EPHEMERIS_TYPE":"0","OBJECT_NAME":"STARLINK-1828","CLASSIFICATION_TYPE":"U","RCS_SIZE":"LARGE","LAUNCH_DATE":"2020-10-18","RA_OF_ASC_NODE":"74.1113","BSTAR":"0.00001681600000","MEAN_ANOMALY":"302.5170","OBJECT_TYPE":"PAYLOAD","ECCENTRICITY":"0.00021400","GP_ID":"202870753","SEMIMAJOR_AXIS":"6925.337","MEAN_MOTION":"15.06403663","CENTER_NAME":"EARTH","REF_FRAME":"TEME","TLE_LINE2":"2 46725  53.0556  74.1113 0002140  57.6026 302.5170 15.06403663 85960","EPOCH":"2022-05-06T20:53:34.839168","SITE":"AFETR","ELEMENT_SET_NO":"999","FILE":"3432502"},{"COUNTRY_CODE":"US","DECAY_DATE":null,"REV_AT_EPOCH":"8557","MEAN_ELEMENT_THEORY":"SGP4","APOAPSIS":"549.293","TIME_SYSTEM":"UTC","MEAN_MOTION_DOT":"0.00000680","MEAN_MOTION_DDOT":"0.0000000000000","OBJECT_ID":"2020-073BJ","NORAD_CAT_ID":"46726","TLE_LINE1":"1 46726U 20073BJ  22126.09972425  .00000680  00000-0  64561-4 0  9998","ARG_OF_PERICENTER":"45.9369","PERIAPSIS":"545.088","RCS_SIZE":"LARGE","CLASSIFICATION_TYPE":"U","OBJECT_NAME":"STARLINK-1829","BSTAR":"0.00006456100000","RA_OF_ASC_NODE":"62.5850","LAUNCH_DATE":"2020-10-18","EPHEMERIS_TYPE":"0","PERIOD":"95.592","INCLINATION":"53.0549","SEMIMAJOR_AXIS":"6925.325","GP_ID":"202860114","ECCENTRICITY":"0.00030360","CENTER_NAME":"EARTH","MEAN_MOTION":"15.06407646","MEAN_ANOMALY":"314.1869","OBJECT_TYPE":"PAYLOAD","FILE":"3432208","SITE":"AFETR","ELEMENT_SET_NO":"999","TLE_LINE2":"2 46726  53.0549  62.5850 0003036  45.9369 314.1869 15.06407646 85573","EPOCH":"2022-05-06T02:23:36.175200","REF_FRAME":"TEME"},{"FILE":"3432208","REF_FRAME":"TEME","EPOCH":"2022-05-06T10:53:48.836544","TLE_LINE2":"2 46727  53.0558  35.9946 0001761  63.0416 297.0753 15.06398604 85980","SITE":"AFETR","ELEMENT_SET_NO":"999","MEAN_MOTION":"15.06398604","CENTER_NAME":"EARTH","ECCENTRICITY":"0.00017610","GP_ID":"202860140","SEMIMAJOR_AXIS":"6925.353","OBJECT_TYPE":"PAYLOAD","MEAN_ANOMALY":"297.0753","LAUNCH_DATE":"2020-10-18","RA_OF_ASC_NODE":"35.9946","BSTAR":"0.00023368000000","OBJECT_NAME":"STARLINK-1830","CLASSIFICATION_TYPE":"U","RCS_SIZE":"LARGE","INCLINATION":"53.0558","PERIOD":"95.592","EPHEMERIS_TYPE":"0","REV_AT_EPOCH":"8598","DECAY_DATE":null,"COUNTRY_CODE":"US","PERIAPSIS":"545.998","ARG_OF_PERICENTER":"63.0416","TLE_LINE1":"1 46727U 20073BK  22126.45403746  .00003201  00000-0  23368-3 0  9995","NORAD_CAT_ID":"46727","MEAN_MOTION_DDOT":"0.0000000000000","MEAN_MOTION_DOT":"0.00003201","OBJECT_ID":"2020-073BK","APOAPSIS":"548.437","TIME_SYSTEM":"UTC","MEAN_ELEMENT_THEORY":"SGP4"},{"OBJECT_TYPE":"PAYLOAD","MEAN_ANOMALY":"312.5955","MEAN_MOTION":"15.06405509","CENTER_NAME":"EARTH","SEMIMAJOR_AXIS":"6925.332","ECCENTRICITY":"0.00022240","GP_ID":"202869019","TLE_LINE2":"2 46740  53.0538 144.6813 0002224  47.5221 312.5955 15.06405509 85159","EPOCH":"2022-05-06T17:54:26.878752","ELEMENT_SET_NO":"999","SITE":"AFETR","REF_FRAME":"TEME","FILE":"3432418","ARG_OF_PERICENTER":"47.5221","PERIAPSIS":"545.656","TIME_SYSTEM":"UTC","APOAPSIS":"548.737","MEAN_ELEMENT_THEORY":"SGP4","TLE_LINE1":"1 46740U 20074B   22126.74614443  .00001002  00000-0  86188-4 0  9998","MEAN_MOTION_DDOT":"0.0000000000000","NORAD_CAT_ID":"46740","MEAN_MOTION_DOT":"0.00001002","OBJECT_ID":"2020-074B","REV_AT_EPOCH":"8515","DECAY_DATE":null,"COUNTRY_CODE":"US","PERIOD":"95.592","EPHEMERIS_TYPE":"0","INCLINATION":"53.0538","BSTAR":"0.00008618800000","LAUNCH_DATE":"2020-10-24","RA_OF_ASC_NODE":"144.6813","RCS_SIZE":"LARGE","CLASSIFICATION_TYPE":"U","OBJECT_NAME":"STARLINK-1848"},{"PERIOD":"95.592","EPHEMERIS_TYPE":"0","INCLINATION":"53.0540","BSTAR":"0.00006510700000","LAUNCH_DATE":"2020-10-24","RA_OF_ASC_NODE":"141.0878","CLASSIFICATION_TYPE":"U","RCS_SIZE":"LARGE","OBJECT_NAME":"STARLINK-1865","ARG_OF_PERICENTER":"43.7790","PERIAPSIS":"545.850","APOAPSIS":"548.586","TIME_SYSTEM":"UTC","MEAN_ELEMENT_THEORY":"SGP4","TLE_LINE1":"1 46741U 20074C   22126.43146582  .00000688  00000-0  65107-4 0  9996","MEAN_MOTION_DDOT":"0.0000000000000","MEAN_MOTION_DOT":"0.00000688","OBJECT_ID":"2020-074C","NORAD_CAT_ID":"46741","REV_AT_EPOCH":"8517","DECAY_DATE":null,"COUNTRY_CODE":"US","EPOCH":"2022-05-06T10:21:18.646848","TLE_LINE2":"2 46741  53.0540 141.0878 0001975  43.7790 316.3355 15.06398577 85170","ELEMENT_SET_NO":"999","SITE":"AFETR","REF_FRAME":"TEME","FILE":"3432208","OBJECT_TYPE":"PAYLOAD","MEAN_ANOMALY":"316.3355","MEAN_MOTION":"15.06398577","CENTER_NAME":"EARTH","SEMIMAJOR_AXIS":"6925.353","ECCENTRICITY":"0.00019750","GP_ID":"202861141"}];
